{
  "type": "FeatureCollection",
  "features": [
    {
      "type": "Feature",
      "properties": {
        "norad_id": 66564,
        "name": "STARLINK-35358",
        "group": "last-30-days",
        "lat": 26.78684955202042,
        "lon": -56.189847365429316,
        "alt_km": 379.78651329342483,
        "timestamp": "2025-12-06T16:45:41.516153+00:00",
        "meta_object_name": "STARLINK-35358",
        "meta_object_id": "2025-268H",
        "meta_epoch": "2025-12-06T06:00:02.000160",
        "meta_mean_motion": 15.63561071,
        "meta_eccentricity": 0.00015144,
        "meta_inclination": 42.9994,
        "meta_ra_of_asc_node": 159.2862,
        "meta_arg_of_pericenter": 271.7011,
        "meta_mean_anomaly": 221.6205,
        "meta_ephemeris_type": 0,
        "meta_classification_type": "U",
        "meta_norad_cat_id": 66564,
        "meta_element_set_no": 999,
        "meta_rev_at_epoch": 357,
        "meta_bstar": -0.024105959,
        "meta_mean_motion_dot": -0.0201919,
        "meta_mean_motion_ddot": 0,
        "tle_line1": "1 66564U 25268H   25340.25002315 -.02019190  00000+0 -24106-1 0  9999",
        "tle_line2": "2 66564  42.9994 159.2862 0001514 271.7011 221.6205 15.63561071  3577"
      },
      "geometry": {
        "type": "Point",
        "coordinates": [
          -56.189847365429316,
          26.78684955202042
        ]
      }
    },
    {
      "type": "Feature",
      "properties": {
        "norad_id": 66565,
        "name": "STARLINK-35893",
        "group": "last-30-days",
        "lat": 25.6779393230925,
        "lon": -54.4518766447049,
        "alt_km": 379.95505351500924,
        "timestamp": "2025-12-06T16:45:41.516162+00:00",
        "meta_object_name": "STARLINK-35893",
        "meta_object_id": "2025-268J",
        "meta_epoch": "2025-12-06T06:00:02.000160",
        "meta_mean_motion": 15.63559019,
        "meta_eccentricity": 0.00015818,
        "meta_inclination": 42.9996,
        "meta_ra_of_asc_node": 159.281,
        "meta_arg_of_pericenter": 271.0363,
        "meta_mean_anomaly": 224.2031,
        "meta_ephemeris_type": 0,
        "meta_classification_type": "U",
        "meta_norad_cat_id": 66565,
        "meta_element_set_no": 999,
        "meta_rev_at_epoch": 362,
        "meta_bstar": -0.02407953,
        "meta_mean_motion_dot": -0.02017159,
        "meta_mean_motion_ddot": 0,
        "tle_line1": "1 66565U 25268J   25340.25002315 -.02017159  00000+0 -24080-1 0  9994",
        "tle_line2": "2 66565  42.9996 159.2810 0001581 271.0363 224.2031 15.63559019  3621"
      },
      "geometry": {
        "type": "Point",
        "coordinates": [
          -54.4518766447049,
          25.6779393230925
        ]
      }
    },
    {
      "type": "Feature",
      "properties": {
        "norad_id": 66566,
        "name": "STARLINK-35871",
        "group": "last-30-days",
        "lat": 24.54765529137646,
        "lon": -52.744967617178624,
        "alt_km": 380.0941393028388,
        "timestamp": "2025-12-06T16:45:41.516173+00:00",
        "meta_object_name": "STARLINK-35871",
        "meta_object_id": "2025-268K",
        "meta_epoch": "2025-12-06T06:00:02.000160",
        "meta_mean_motion": 15.63558265,
        "meta_eccentricity": 0.00015794,
        "meta_inclination": 42.9994,
        "meta_ra_of_asc_node": 159.2761,
        "meta_arg_of_pericenter": 270.4635,
        "meta_mean_anomaly": 226.6941,
        "meta_ephemeris_type": 0,
        "meta_classification_type": "U",
        "meta_norad_cat_id": 66566,
        "meta_element_set_no": 999,
        "meta_rev_at_epoch": 362,
        "meta_bstar": -0.024078822,
        "meta_mean_motion_dot": -0.02017052,
        "meta_mean_motion_ddot": 0,
        "tle_line1": "1 66566U 25268K   25340.25002315 -.02017052  00000+0 -24079-1 0  9995",
        "tle_line2": "2 66566  42.9994 159.2761 0001579 270.4635 226.6941 15.63558265  3625"
      },
      "geometry": {
        "type": "Point",
        "coordinates": [
          -52.744967617178624,
          24.54765529137646
        ]
      }
    },
    {
      "type": "Feature",
      "properties": {
        "norad_id": 66567,
        "name": "STARLINK-35825",
        "group": "last-30-days",
        "lat": 23.397731276633404,
        "lon": -51.06719984484563,
        "alt_km": 380.26309286993273,
        "timestamp": "2025-12-06T16:45:41.516184+00:00",
        "meta_object_name": "STARLINK-35825",
        "meta_object_id": "2025-268L",
        "meta_epoch": "2025-12-06T06:00:02.000160",
        "meta_mean_motion": 15.63557592,
        "meta_eccentricity": 0.00015417,
        "meta_inclination": 42.9994,
        "meta_ra_of_asc_node": 159.2717,
        "meta_arg_of_pericenter": 272.3438,
        "meta_mean_anomaly": 226.7305,
        "meta_ephemeris_type": 0,
        "meta_classification_type": "U",
        "meta_norad_cat_id": 66567,
        "meta_element_set_no": 999,
        "meta_rev_at_epoch": 362,
        "meta_bstar": -0.024052944,
        "meta_mean_motion_dot": -0.02015076,
        "meta_mean_motion_ddot": 0,
        "tle_line1": "1 66567U 25268L   25340.25002315 -.02015076  00000+0 -24053-1 0  9992",
        "tle_line2": "2 66567  42.9994 159.2717 0001541 272.3438 226.7305 15.63557592  3625"
      },
      "geometry": {
        "type": "Point",
        "coordinates": [
          -51.06719984484563,
          23.397731276633404
        ]
      }
    },
    {
      "type": "Feature",
      "properties": {
        "norad_id": 66568,
        "name": "STARLINK-35803",
        "group": "last-30-days",
        "lat": 22.229960181418924,
        "lon": -49.419503933520026,
        "alt_km": 380.3880127614102,
        "timestamp": "2025-12-06T16:45:41.516195+00:00",
        "meta_object_name": "STARLINK-35803",
        "meta_object_id": "2025-268M",
        "meta_epoch": "2025-12-06T06:00:02.000160",
        "meta_mean_motion": 15.63566247,
        "meta_eccentricity": 0.00014372,
        "meta_inclination": 42.9995,
        "meta_ra_of_asc_node": 159.2661,
        "meta_arg_of_pericenter": 272.958,
        "meta_mean_anomaly": 228.028,
        "meta_ephemeris_type": 0,
        "meta_classification_type": "U",
        "meta_norad_cat_id": 66568,
        "meta_element_set_no": 999,
        "meta_rev_at_epoch": 362,
        "meta_bstar": -0.024169296,
        "meta_mean_motion_dot": -0.0202414,
        "meta_mean_motion_ddot": 0,
        "tle_line1": "1 66568U 25268M   25340.25002315 -.02024140  00000+0 -24169-1 0  9993",
        "tle_line2": "2 66568  42.9995 159.2661 0001437 272.9580 228.0280 15.63566247  3627"
      },
      "geometry": {
        "type": "Point",
        "coordinates": [
          -49.419503933520026,
          22.229960181418924
        ]
      }
    },
    {
      "type": "Feature",
      "properties": {
        "norad_id": 66569,
        "name": "STARLINK-35835",
        "group": "last-30-days",
        "lat": 21.04676422720515,
        "lon": -47.79965643670254,
        "alt_km": 380.51782964051563,
        "timestamp": "2025-12-06T16:45:41.516207+00:00",
        "meta_object_name": "STARLINK-35835",
        "meta_object_id": "2025-268N",
        "meta_epoch": "2025-12-06T06:00:02.000160",
        "meta_mean_motion": 15.63561444,
        "meta_eccentricity": 0.00014391,
        "meta_inclination": 42.9996,
        "meta_ra_of_asc_node": 159.2615,
        "meta_arg_of_pericenter": 271.2758,
        "meta_mean_anomaly": 231.6333,
        "meta_ephemeris_type": 0,
        "meta_classification_type": "U",
        "meta_norad_cat_id": 66569,
        "meta_element_set_no": 999,
        "meta_rev_at_epoch": 362,
        "meta_bstar": -0.024139571,
        "meta_mean_motion_dot": -0.02021622,
        "meta_mean_motion_ddot": 0,
        "tle_line1": "1 66569U 25268N   25340.25002315 -.02021622  00000+0 -24140-1 0  9995",
        "tle_line2": "2 66569  42.9996 159.2615 0001439 271.2758 231.6333 15.63561444  3622"
      },
      "geometry": {
        "type": "Point",
        "coordinates": [
          -47.79965643670254,
          21.04676422720515
        ]
      }
    },
    {
      "type": "Feature",
      "properties": {
        "norad_id": 66570,
        "name": "STARLINK-35834",
        "group": "last-30-days",
        "lat": 19.848512589835387,
        "lon": -46.206569874247506,
        "alt_km": 380.63323468360886,
        "timestamp": "2025-12-06T16:45:41.516218+00:00",
        "meta_object_name": "STARLINK-35834",
        "meta_object_id": "2025-268P",
        "meta_epoch": "2025-12-06T06:00:02.000160",
        "meta_mean_motion": 15.63560725,
        "meta_eccentricity": 0.00014208,
        "meta_inclination": 42.9996,
        "meta_ra_of_asc_node": 159.2562,
        "meta_arg_of_pericenter": 269.3898,
        "meta_mean_anomaly": 235.4386,
        "meta_ephemeris_type": 0,
        "meta_classification_type": "U",
        "meta_norad_cat_id": 66570,
        "meta_element_set_no": 999,
        "meta_rev_at_epoch": 362,
        "meta_bstar": -0.024156775,
        "meta_mean_motion_dot": -0.02022819,
        "meta_mean_motion_ddot": 0,
        "tle_line1": "1 66570U 25268P   25340.25002315 -.02022819  00000+0 -24157-1 0  9994",
        "tle_line2": "2 66570  42.9996 159.2562 0001420 269.3898 235.4386 15.63560725  3629"
      },
      "geometry": {
        "type": "Point",
        "coordinates": [
          -46.206569874247506,
          19.848512589835387
        ]
      }
    }
  ]
}